[Satellite]
VERSION=1.1
NAME=ISIS 1
NICKNAME=ISIS 1
TLE1=1 03669U 69009A   17186.24763503  .00000033  00000-0  17776-4 0  9999
TLE2=2 03669  88.4355 146.3111 1712207 359.9811   0.0924 11.29442284990675
